CCSDS_OMM_VERS = 2.0
CREATION_DATE  = 
ORIGINATOR     = 

OBJECT_NAME    = SL-3 R/B
OBJECT_ID      = 1982-079B
CENTER_NAME    = EARTH
REF_FRAME      = TEME
TIME_SYSTEM    = UTC
MEAN_ELEMENT_THEORY = SGP/SGP4

EPOCH          = 2026-03-23T05:59:58.400736
MEAN_MOTION    = 15.24985475
ECCENTRICITY   = .00254384
INCLINATION    = 81.1486
RA_OF_ASC_NODE = 177.0670
ARG_OF_PERICENTER = 120.0935
MEAN_ANOMALY   = 240.2826

EPHEMERIS_TYPE = 0
CLASSIFICATION_TYPE = U
NORAD_CAT_ID   = 13403
ELEMENT_SET_NO = 999
REV_AT_EPOCH   = 37976
BSTAR          = .28353348E-3
MEAN_MOTION_DOT = .7163E-4
MEAN_MOTION_DDOT = 0

CCSDS_OMM_VERS = 2.0
CREATION_DATE  = 
ORIGINATOR     = 

OBJECT_NAME    = SL-14 R/B
OBJECT_ID      = 1982-092B
CENTER_NAME    = EARTH
REF_FRAME      = TEME
TIME_SYSTEM    = UTC
MEAN_ELEMENT_THEORY = SGP/SGP4

EPOCH          = 2026-03-23T05:46:57.469152
MEAN_MOTION    = 14.86678398
ECCENTRICITY   = .00188155
INCLINATION    = 82.5670
RA_OF_ASC_NODE = 128.7235
ARG_OF_PERICENTER = 255.0433
MEAN_ANOMALY   = 174.6020

EPHEMERIS_TYPE = 0
CLASSIFICATION_TYPE = U
NORAD_CAT_ID   = 13553
ELEMENT_SET_NO = 999
REV_AT_EPOCH   = 33094
BSTAR          = .47191659E-4
MEAN_MOTION_DOT = .445E-5
MEAN_MOTION_DDOT = 0

CCSDS_OMM_VERS = 2.0
CREATION_DATE  = 
ORIGINATOR     = 

OBJECT_NAME    = SL-3 R/B
OBJECT_ID      = 1983-010B
CENTER_NAME    = EARTH
REF_FRAME      = TEME
TIME_SYSTEM    = UTC
MEAN_ELEMENT_THEORY = SGP/SGP4

EPOCH          = 2026-03-23T05:14:21.597792
MEAN_MOTION    = 15.46814812
ECCENTRICITY   = .00166069
INCLINATION    = 81.1053
RA_OF_ASC_NODE = 345.6581
ARG_OF_PERICENTER = 5.8752
MEAN_ANOMALY   = 354.2684

EPHEMERIS_TYPE = 0
CLASSIFICATION_TYPE = U
NORAD_CAT_ID   = 13819
ELEMENT_SET_NO = 999
REV_AT_EPOCH   = 36003
BSTAR          = .37389202E-3
MEAN_MOTION_DOT = .18901E-3
MEAN_MOTION_DDOT = 0

CCSDS_OMM_VERS = 2.0
CREATION_DATE  = 
ORIGINATOR     = 

OBJECT_NAME    = SL-3 R/B
OBJECT_ID      = 1983-075B
CENTER_NAME    = EARTH
REF_FRAME      = TEME
TIME_SYSTEM    = UTC
MEAN_ELEMENT_THEORY = SGP/SGP4

EPOCH          = 2026-03-23T06:43:01.816032
MEAN_MOTION    = 15.38731176
ECCENTRICITY   = .00216148
INCLINATION    = 97.6144
RA_OF_ASC_NODE = 87.3752
ARG_OF_PERICENTER = 175.7201
MEAN_ANOMALY   = 184.4233

EPHEMERIS_TYPE = 0
CLASSIFICATION_TYPE = U
NORAD_CAT_ID   = 14208
ELEMENT_SET_NO = 999
REV_AT_EPOCH   = 33224
BSTAR          = .34136875E-3
MEAN_MOTION_DOT = .13089E-3
MEAN_MOTION_DDOT = 0

CCSDS_OMM_VERS = 2.0
CREATION_DATE  = 
ORIGINATOR     = 

OBJECT_NAME    = COSMOS 1536
OBJECT_ID      = 1984-013A
CENTER_NAME    = EARTH
REF_FRAME      = TEME
TIME_SYSTEM    = UTC
MEAN_ELEMENT_THEORY = SGP/SGP4

EPOCH          = 2026-03-23T07:29:22.115328
MEAN_MOTION    = 15.24002720
ECCENTRICITY   = .00128139
INCLINATION    = 82.5418
RA_OF_ASC_NODE = 94.3036
ARG_OF_PERICENTER = 229.0950
MEAN_ANOMALY   = 130.9179

EPHEMERIS_TYPE = 0
CLASSIFICATION_TYPE = U
NORAD_CAT_ID   = 14699
ELEMENT_SET_NO = 999
REV_AT_EPOCH   = 27469
BSTAR          = .34086331E-3
MEAN_MOTION_DOT = .8306E-4
MEAN_MOTION_DDOT = 0

CCSDS_OMM_VERS = 2.0
CREATION_DATE  = 
ORIGINATOR     = 

OBJECT_NAME    = SL-14 R/B
OBJECT_ID      = 1984-027B
CENTER_NAME    = EARTH
REF_FRAME      = TEME
TIME_SYSTEM    = UTC
MEAN_ELEMENT_THEORY = SGP/SGP4

EPOCH          = 2026-03-22T19:46:23.144736
MEAN_MOTION    = 14.85989545
ECCENTRICITY   = .00165599
INCLINATION    = 82.5403
RA_OF_ASC_NODE = 232.6924
ARG_OF_PERICENTER = 291.8046
MEAN_ANOMALY   = 68.1408

EPHEMERIS_TYPE = 0
CLASSIFICATION_TYPE = U
NORAD_CAT_ID   = 14820
ELEMENT_SET_NO = 999
REV_AT_EPOCH   = 24958
BSTAR          = .56581719E-4
MEAN_MOTION_DOT = .519E-5
MEAN_MOTION_DDOT = 0

CCSDS_OMM_VERS = 2.0
CREATION_DATE  = 
ORIGINATOR     = 

OBJECT_NAME    = SL-8 R/B
OBJECT_ID      = 1985-006B
CENTER_NAME    = EARTH
REF_FRAME      = TEME
TIME_SYSTEM    = UTC
MEAN_ELEMENT_THEORY = SGP/SGP4

EPOCH          = 2026-03-23T04:16:19.388352
MEAN_MOTION    = 14.37793097
ECCENTRICITY   = .00178915
INCLINATION    = 74.0441
RA_OF_ASC_NODE = 236.3263
ARG_OF_PERICENTER = 150.4594
MEAN_ANOMALY   = 22.6630

EPHEMERIS_TYPE = 0
CLASSIFICATION_TYPE = U
NORAD_CAT_ID   = 15483
ELEMENT_SET_NO = 999
REV_AT_EPOCH   = 15596
BSTAR          = .13029589E-3
MEAN_MOTION_DOT = .367E-5
MEAN_MOTION_DDOT = 0

CCSDS_OMM_VERS = 2.0
CREATION_DATE  = 
ORIGINATOR     = 

OBJECT_NAME    = SL-12 R/B(2)
OBJECT_ID      = 1985-042D
CENTER_NAME    = EARTH
REF_FRAME      = TEME
TIME_SYSTEM    = UTC
MEAN_ELEMENT_THEORY = SGP/SGP4

EPOCH          = 2026-03-23T04:56:27.603456
MEAN_MOTION    = 14.21985992
ECCENTRICITY   = .0032867
INCLINATION    = 71.1075
RA_OF_ASC_NODE = 59.1701
ARG_OF_PERICENTER = 105.7444
MEAN_ANOMALY   = 342.6727

EPHEMERIS_TYPE = 0
CLASSIFICATION_TYPE = U
NORAD_CAT_ID   = 15772
ELEMENT_SET_NO = 999
REV_AT_EPOCH   = 11631
BSTAR          = .86026204E-4
MEAN_MOTION_DOT = .144E-5
MEAN_MOTION_DDOT = 0

CCSDS_OMM_VERS = 2.0
CREATION_DATE  = 
ORIGINATOR     = 

OBJECT_NAME    = SL-14 R/B
OBJECT_ID      = 1985-069B
CENTER_NAME    = EARTH
REF_FRAME      = TEME
TIME_SYSTEM    = UTC
MEAN_ELEMENT_THEORY = SGP/SGP4

EPOCH          = 2026-03-23T05:00:20.405664
MEAN_MOTION    = 14.86447608
ECCENTRICITY   = .0019661
INCLINATION    = 82.5302
RA_OF_ASC_NODE = 12.2239
ARG_OF_PERICENTER = 143.6860
MEAN_ANOMALY   = 216.5696

EPHEMERIS_TYPE = 0
CLASSIFICATION_TYPE = U
NORAD_CAT_ID   = 15945
ELEMENT_SET_NO = 999
REV_AT_EPOCH   = 17484
BSTAR          = .60121149E-4
MEAN_MOTION_DOT = .557E-5
MEAN_MOTION_DDOT = 0

CCSDS_OMM_VERS = 2.0
CREATION_DATE  = 
ORIGINATOR     = 

OBJECT_NAME    = SL-16 R/B
OBJECT_ID      = 1985-097B
CENTER_NAME    = EARTH
REF_FRAME      = TEME
TIME_SYSTEM    = UTC
MEAN_ELEMENT_THEORY = SGP/SGP4

EPOCH          = 2026-03-23T04:35:43.962720
MEAN_MOTION    = 14.16602182
ECCENTRICITY   = .00095529
INCLINATION    = 71.0012
RA_OF_ASC_NODE = 112.1286
ARG_OF_PERICENTER = 243.7349
MEAN_ANOMALY   = 178.8991

EPHEMERIS_TYPE = 0
CLASSIFICATION_TYPE = U
NORAD_CAT_ID   = 16182
ELEMENT_SET_NO = 999
REV_AT_EPOCH   = 8914
BSTAR          = .13090765E-3
MEAN_MOTION_DOT = .213E-5
MEAN_MOTION_DDOT = 0

CCSDS_OMM_VERS = 2.0
CREATION_DATE  = 
ORIGINATOR     = 

OBJECT_NAME    = SL-14 R/B
OBJECT_ID      = 1986-006B
CENTER_NAME    = EARTH
REF_FRAME      = TEME
TIME_SYSTEM    = UTC
MEAN_ELEMENT_THEORY = SGP/SGP4

EPOCH          = 2026-03-22T23:31:34.305888
MEAN_MOTION    = 14.86834042
ECCENTRICITY   = .00754006
INCLINATION    = 82.5241
RA_OF_ASC_NODE = 247.2250
ARG_OF_PERICENTER = 227.9150
MEAN_ANOMALY   = 131.5640

EPHEMERIS_TYPE = 0
CLASSIFICATION_TYPE = U
NORAD_CAT_ID   = 16496
ELEMENT_SET_NO = 999
REV_AT_EPOCH   = 15118
BSTAR          = .82598076E-4
MEAN_MOTION_DOT = .801E-5
MEAN_MOTION_DDOT = 0

CCSDS_OMM_VERS = 2.0
CREATION_DATE  = 
ORIGINATOR     = 

OBJECT_NAME    = COSMOS 1743
OBJECT_ID      = 1986-034A
CENTER_NAME    = EARTH
REF_FRAME      = TEME
TIME_SYSTEM    = UTC
MEAN_ELEMENT_THEORY = SGP/SGP4

EPOCH          = 2026-03-23T04:26:03.046272
MEAN_MOTION    = 15.59614085
ECCENTRICITY   = .00031304
INCLINATION    = 82.5304
RA_OF_ASC_NODE = 59.6549
ARG_OF_PERICENTER = 190.2985
MEAN_ANOMALY   = 169.8208

EPHEMERIS_TYPE = 0
CLASSIFICATION_TYPE = U
NORAD_CAT_ID   = 16719
ELEMENT_SET_NO = 999
REV_AT_EPOCH   = 18235
BSTAR          = .56285601E-3
MEAN_MOTION_DOT = .44997E-3
MEAN_MOTION_DDOT = 0

