SL-3 R/B                
1 13403U 82079B   26082.24998149  .00007163  00000+0  28353-3 0  9991
2 13403  81.1486 177.0670 0025438 120.0935 240.2826 15.24985475379767
SL-14 R/B               
1 13553U 82092B   26082.24094293  .00000445  00000+0  47192-4 0  9998
2 13553  82.5670 128.7235 0018815 255.0433 174.6020 14.86678398330949
SL-3 R/B                
1 13819U 83010B   26082.21830553  .00018901  00000+0  37389-3 0  9990
2 13819  81.1053 345.6581 0016606   5.8752 354.2684 15.46814812360034
SL-3 R/B                
1 14208U 83075B   26082.27988213  .00013089  00000+0  34137-3 0  9997
2 14208  97.6144  87.3752 0021614 175.7201 184.4233 15.38731176332248
COSMOS 1536             
1 14699U 84013A   26082.31206152  .00008306  00000+0  34086-3 0  9993
2 14699  82.5418  94.3036 0012813 229.0950 130.9179 15.24002720274697
SL-14 R/B               
1 14820U 84027B   26081.82387899  .00000519  00000+0  56582-4 0  9991
2 14820  82.5403 232.6924 0016559 291.8046  68.1408 14.85989545249586
SL-8 R/B                
1 15483U 85006B   26082.17800218  .00000367  00000+0  13030-3 0  9990
2 15483  74.0441 236.3263 0017891 150.4594  22.6630 14.37793097155967
SL-12 R/B(2)            
1 15772U 85042D   26082.20587504  .00000144  00000+0  86026-4 0  9994
2 15772  71.1075  59.1701 0032867 105.7444 342.6727 14.21985992116312
SL-14 R/B               
1 15945U 85069B   26082.20856951  .00000557  00000+0  60121-4 0  9996
2 15945  82.5302  12.2239 0019661 143.6860 216.5696 14.86447608174843
SL-16 R/B               
1 16182U 85097B   26082.19148105  .00000213  00000+0  13091-3 0  9996
2 16182  71.0012 112.1286 0009552 243.7349 178.8991 14.16602182 89141
SL-14 R/B               
1 16496U 86006B   26081.98025817  .00000801  00000+0  82598-4 0  9997
2 16496  82.5241 247.2250 0075400 227.9150 131.5640 14.86834042151180
COSMOS 1743             
1 16719U 86034A   26082.18475748  .00044997  00000+0  56286-3 0  9999
2 16719  82.5304  59.6549 0003130 190.2985 169.8208 15.59614085182354
